CCSDS_OMM_VERS = 2.0
CREATION_DATE  = 
ORIGINATOR     = 

OBJECT_NAME    = STARLINK-36823
OBJECT_ID      = 2026-042B
CENTER_NAME    = EARTH
REF_FRAME      = TEME
TIME_SYSTEM    = UTC
MEAN_ELEMENT_THEORY = SGP/SGP4

EPOCH          = 2026-03-27T18:37:47.638848
MEAN_MOTION    = 15.81008648
ECCENTRICITY   = .0000817
INCLINATION    = 53.1577
RA_OF_ASC_NODE = 104.1265
ARG_OF_PERICENTER = 82.2114
MEAN_ANOMALY   = 277.9001

EPHEMERIS_TYPE = 0
CLASSIFICATION_TYPE = U
NORAD_CAT_ID   = 68070
ELEMENT_SET_NO = 999
REV_AT_EPOCH   = 494
BSTAR          = .20492E-2
MEAN_MOTION_DOT = .427086E-2
MEAN_MOTION_DDOT = 0

CCSDS_OMM_VERS = 2.0
CREATION_DATE  = 
ORIGINATOR     = 

OBJECT_NAME    = STARLINK-36970
OBJECT_ID      = 2026-042C
CENTER_NAME    = EARTH
REF_FRAME      = TEME
TIME_SYSTEM    = UTC
MEAN_ELEMENT_THEORY = SGP/SGP4

EPOCH          = 2026-03-27T20:00:01.999008
MEAN_MOTION    = 15.75187898
ECCENTRICITY   = .0001189
INCLINATION    = 53.1599
RA_OF_ASC_NODE = 103.9322
ARG_OF_PERICENTER = 109.4658
MEAN_ANOMALY   = 170.0685

EPHEMERIS_TYPE = 0
CLASSIFICATION_TYPE = U
NORAD_CAT_ID   = 68071
ELEMENT_SET_NO = 999
REV_AT_EPOCH   = 496
BSTAR          = .63863E-3
MEAN_MOTION_DOT = .98177E-3
MEAN_MOTION_DDOT = 0

CCSDS_OMM_VERS = 2.0
CREATION_DATE  = 
ORIGINATOR     = 

OBJECT_NAME    = STARLINK-36972
OBJECT_ID      = 2026-042D
CENTER_NAME    = EARTH
REF_FRAME      = TEME
TIME_SYSTEM    = UTC
MEAN_ELEMENT_THEORY = SGP/SGP4

EPOCH          = 2026-03-27T18:36:43.320960
MEAN_MOTION    = 15.81039440
ECCENTRICITY   = .0001843
INCLINATION    = 53.1573
RA_OF_ASC_NODE = 104.1217
ARG_OF_PERICENTER = 72.5727
MEAN_ANOMALY   = 287.5497

EPHEMERIS_TYPE = 0
CLASSIFICATION_TYPE = U
NORAD_CAT_ID   = 68072
ELEMENT_SET_NO = 999
REV_AT_EPOCH   = 494
BSTAR          = .23442E-2
MEAN_MOTION_DOT = .49314E-2
MEAN_MOTION_DDOT = 0

CCSDS_OMM_VERS = 2.0
CREATION_DATE  = 
ORIGINATOR     = 

OBJECT_NAME    = STARLINK-37074
OBJECT_ID      = 2026-042E
CENTER_NAME    = EARTH
REF_FRAME      = TEME
TIME_SYSTEM    = UTC
MEAN_ELEMENT_THEORY = SGP/SGP4

EPOCH          = 2026-03-27T20:00:01.999008
MEAN_MOTION    = 15.76924339
ECCENTRICITY   = .0000929
INCLINATION    = 53.1592
RA_OF_ASC_NODE = 103.8254
ARG_OF_PERICENTER = 100.9729
MEAN_ANOMALY   = 230.6524

EPHEMERIS_TYPE = 0
CLASSIFICATION_TYPE = U
NORAD_CAT_ID   = 68073
ELEMENT_SET_NO = 999
REV_AT_EPOCH   = 496
BSTAR          = -.12423E-1
MEAN_MOTION_DOT = -.1800522E-1
MEAN_MOTION_DDOT = 0

CCSDS_OMM_VERS = 2.0
CREATION_DATE  = 
ORIGINATOR     = 

OBJECT_NAME    = STARLINK-37045
OBJECT_ID      = 2026-042F
CENTER_NAME    = EARTH
REF_FRAME      = TEME
TIME_SYSTEM    = UTC
MEAN_ELEMENT_THEORY = SGP/SGP4

EPOCH          = 2026-03-27T11:31:55.293312
MEAN_MOTION    = 15.75302623
ECCENTRICITY   = .000277
INCLINATION    = 53.1596
RA_OF_ASC_NODE = 105.8489
ARG_OF_PERICENTER = 39.0243
MEAN_ANOMALY   = 321.0976

EPHEMERIS_TYPE = 0
CLASSIFICATION_TYPE = U
NORAD_CAT_ID   = 68074
ELEMENT_SET_NO = 999
REV_AT_EPOCH   = 489
BSTAR          = .47577E-3
MEAN_MOTION_DOT = .73136E-3
MEAN_MOTION_DDOT = 0

CCSDS_OMM_VERS = 2.0
CREATION_DATE  = 
ORIGINATOR     = 

OBJECT_NAME    = STARLINK-37026
OBJECT_ID      = 2026-042G
CENTER_NAME    = EARTH
REF_FRAME      = TEME
TIME_SYSTEM    = UTC
MEAN_ELEMENT_THEORY = SGP/SGP4

EPOCH          = 2026-03-27T17:50:54.819456
MEAN_MOTION    = 15.75319622
ECCENTRICITY   = .0002411
INCLINATION    = 53.1569
RA_OF_ASC_NODE = 104.6453
ARG_OF_PERICENTER = 77.6660
MEAN_ANOMALY   = 282.4630

EPHEMERIS_TYPE = 0
CLASSIFICATION_TYPE = U
NORAD_CAT_ID   = 68075
ELEMENT_SET_NO = 999
REV_AT_EPOCH   = 493
BSTAR          = .22171E-2
MEAN_MOTION_DOT = .355125E-2
MEAN_MOTION_DDOT = 0

CCSDS_OMM_VERS = 2.0
CREATION_DATE  = 
ORIGINATOR     = 

OBJECT_NAME    = STARLINK-37023
OBJECT_ID      = 2026-042H
CENTER_NAME    = EARTH
REF_FRAME      = TEME
TIME_SYSTEM    = UTC
MEAN_ELEMENT_THEORY = SGP/SGP4

EPOCH          = 2026-03-27T13:09:20.345760
MEAN_MOTION    = 15.75258096
ECCENTRICITY   = .000157
INCLINATION    = 53.1576
RA_OF_ASC_NODE = 105.5565
ARG_OF_PERICENTER = 133.5167
MEAN_ANOMALY   = 226.5984

EPHEMERIS_TYPE = 0
CLASSIFICATION_TYPE = U
NORAD_CAT_ID   = 68076
ELEMENT_SET_NO = 999
REV_AT_EPOCH   = 490
BSTAR          = .1865E-2
MEAN_MOTION_DOT = .295703E-2
MEAN_MOTION_DDOT = 0

CCSDS_OMM_VERS = 2.0
CREATION_DATE  = 
ORIGINATOR     = 

OBJECT_NAME    = STARLINK-37036
OBJECT_ID      = 2026-042J
CENTER_NAME    = EARTH
REF_FRAME      = TEME
TIME_SYSTEM    = UTC
MEAN_ELEMENT_THEORY = SGP/SGP4

EPOCH          = 2026-03-27T11:38:27.099168
MEAN_MOTION    = 15.75262011
ECCENTRICITY   = .0001116
INCLINATION    = 53.1575
RA_OF_ASC_NODE = 105.8738
ARG_OF_PERICENTER = 70.7523
MEAN_ANOMALY   = 289.3618

EPHEMERIS_TYPE = 0
CLASSIFICATION_TYPE = U
NORAD_CAT_ID   = 68077
ELEMENT_SET_NO = 999
REV_AT_EPOCH   = 489
BSTAR          = .70954E-3
MEAN_MOTION_DOT = .109654E-2
MEAN_MOTION_DDOT = 0

CCSDS_OMM_VERS = 2.0
CREATION_DATE  = 
ORIGINATOR     = 

OBJECT_NAME    = STARLINK-36973
OBJECT_ID      = 2026-042K
CENTER_NAME    = EARTH
REF_FRAME      = TEME
TIME_SYSTEM    = UTC
MEAN_ELEMENT_THEORY = SGP/SGP4

EPOCH          = 2026-03-27T20:00:01.999008
MEAN_MOTION    = 15.75214464
ECCENTRICITY   = .0001195
INCLINATION    = 53.1594
RA_OF_ASC_NODE = 103.8256
ARG_OF_PERICENTER = 102.4462
MEAN_ANOMALY   = 228.5894

EPHEMERIS_TYPE = 0
CLASSIFICATION_TYPE = U
NORAD_CAT_ID   = 68078
ELEMENT_SET_NO = 999
REV_AT_EPOCH   = 496
BSTAR          = .219E-3
MEAN_MOTION_DOT = .33025E-3
MEAN_MOTION_DDOT = 0

CCSDS_OMM_VERS = 2.0
CREATION_DATE  = 
ORIGINATOR     = 

OBJECT_NAME    = STARLINK-37063
OBJECT_ID      = 2026-042L
CENTER_NAME    = EARTH
REF_FRAME      = TEME
TIME_SYSTEM    = UTC
MEAN_ELEMENT_THEORY = SGP/SGP4

EPOCH          = 2026-03-27T18:29:09.238848
MEAN_MOTION    = 15.80984808
ECCENTRICITY   = .0001439
INCLINATION    = 53.1571
RA_OF_ASC_NODE = 104.0858
ARG_OF_PERICENTER = 68.1410
MEAN_ANOMALY   = 291.9765

EPHEMERIS_TYPE = 0
CLASSIFICATION_TYPE = U
NORAD_CAT_ID   = 68079
ELEMENT_SET_NO = 999
REV_AT_EPOCH   = 494
BSTAR          = .20282E-2
MEAN_MOTION_DOT = .421951E-2
MEAN_MOTION_DDOT = 0

CCSDS_OMM_VERS = 2.0
CREATION_DATE  = 
ORIGINATOR     = 

OBJECT_NAME    = STARLINK-37051
OBJECT_ID      = 2026-042M
CENTER_NAME    = EARTH
REF_FRAME      = TEME
TIME_SYSTEM    = UTC
MEAN_ELEMENT_THEORY = SGP/SGP4

EPOCH          = 2026-03-27T20:00:01.999008
MEAN_MOTION    = 15.75200229
ECCENTRICITY   = .0001133
INCLINATION    = 53.1596
RA_OF_ASC_NODE = 103.8785
ARG_OF_PERICENTER = 110.0570
MEAN_ANOMALY   = 195.2309

EPHEMERIS_TYPE = 0
CLASSIFICATION_TYPE = U
NORAD_CAT_ID   = 68080
ELEMENT_SET_NO = 999
REV_AT_EPOCH   = 496
BSTAR          = .4314E-3
MEAN_MOTION_DOT = .65893E-3
MEAN_MOTION_DDOT = 0

CCSDS_OMM_VERS = 2.0
CREATION_DATE  = 
ORIGINATOR     = 

OBJECT_NAME    = STARLINK-37066
OBJECT_ID      = 2026-042N
CENTER_NAME    = EARTH
REF_FRAME      = TEME
TIME_SYSTEM    = UTC
MEAN_ELEMENT_THEORY = SGP/SGP4

EPOCH          = 2026-03-27T16:00:01.999584
MEAN_MOTION    = 15.75271720
ECCENTRICITY   = .0001108
INCLINATION    = 53.1592
RA_OF_ASC_NODE = 104.8635
ARG_OF_PERICENTER = 82.8853
MEAN_ANOMALY   = 281.3066

EPHEMERIS_TYPE = 0
CLASSIFICATION_TYPE = U
NORAD_CAT_ID   = 68081
ELEMENT_SET_NO = 999
REV_AT_EPOCH   = 494
BSTAR          = -.48039E-3
MEAN_MOTION_DOT = -.73743E-3
MEAN_MOTION_DDOT = 0

